{"type": "FeatureCollection", "features": [ {"type": "Feature", "properties": {"norad_id": 54234, "name": "NOAA 21 (JPSS-2)", "group": "weather", "lat": -61.6843668878642, "lon": -51.79431202659355, "alt_km": 833.9373628829553, "timestamp": "2025-12-21T09:37:22.291456+00:00", "meta": {"OBJECT_NAME": "NOAA 21 (JPSS-2)", "OBJECT_ID": "2022-150A", "EPOCH": "2025-12-21T03:09:08.347968", "MEAN_MOTION": 14.19526263, "ECCENTRICITY": 0.0001847, "INCLINATION": 98.7474, "RA_OF_ASC_NODE": 291.3352, "ARG_OF_PERICENTER": 21.2149, "MEAN_ANOMALY": 338.9103, "EPHEMERIS_TYPE": 0, "CLASSIFICATION_TYPE": "U", "NORAD_CAT_ID": 54234, "ELEMENT_SET_NO": 999, "REV_AT_EPOCH": 16128, "BSTAR": 4.2537e-05, "MEAN_MOTION_DOT": 4.6e-07, "MEAN_MOTION_DDOT": 0}, "tle": {"line1": "1 54234U 22150A   25355.13134662  .00000046  00000+0  42537-4 0  9998", "line2": "2 54234  98.7474 291.3352 0001847  21.2149 338.9103 14.19526263161287"}}, "geometry": {"type": "Point", "coordinates": [-51.79431202659355, -61.6843668878642]}}, {"type": "Feature", "properties": {"norad_id": 54743, "name": "METEOSAT-12 (MTG-I1)", "group": "weather", "lat": -0.3607127956032987, "lon": -125.76575270073134, "alt_km": 35780.97530009092, "timestamp": "2025-12-21T09:37:22.291468+00:00", "meta": {"OBJECT_NAME": "METEOSAT-12 (MTG-I1)", "OBJECT_ID": "2022-170C", "EPOCH": "2025-12-21T03:32:38.808096", "MEAN_MOTION": 1.00270641, "ECCENTRICITY": 0.0001495, "INCLINATION": 0.6952, "RA_OF_ASC_NODE": 24.9849, "ARG_OF_PERICENTER": 239.5817, "MEAN_ANOMALY": 238.2565, "EPHEMERIS_TYPE": 0, "CLASSIFICATION_TYPE": "U", "NORAD_CAT_ID": 54743, "ELEMENT_SET_NO": 999, "REV_AT_EPOCH": 1119, "BSTAR": 0, "MEAN_MOTION_DOT": 1.5e-07, "MEAN_MOTION_DDOT": 0}, "tle": {"line1": "1 54743U 22170C   25355.14767139  .00000015  00000+0  00000+0 0  9997", "line2": "2 54743   0.6952  24.9849 0001495 239.5817 238.2565  1.00270641 11191"}}, "geometry": {"type": "Point", "coordinates": [-125.76575270073134, -0.3607127956032987]}}, {"type": "Feature", "properties": {"norad_id": 55973, "name": "TIANMU-1 03", "group": "weather", "lat": 45.125756202870804, "lon": 150.6806443284548, "alt_km": 436.2085609593041, "timestamp": "2025-12-21T09:37:22.291479+00:00", "meta": {"OBJECT_NAME": "TIANMU-1 03", "OBJECT_ID": "2023-039A", "EPOCH": "2025-12-21T04:45:03.026016", "MEAN_MOTION": 15.41150455, "ECCENTRICITY": 0.0003993, "INCLINATION": 97.5106, "RA_OF_ASC_NODE": 158.0869, "ARG_OF_PERICENTER": 36.8869, "MEAN_ANOMALY": 323.2651, "EPHEMERIS_TYPE": 0, "CLASSIFICATION_TYPE": "U", "NORAD_CAT_ID": 55973, "ELEMENT_SET_NO": 999, "REV_AT_EPOCH": 15336, "BSTAR": 0.00027034, "MEAN_MOTION_DOT": 0.0001112, "MEAN_MOTION_DDOT": 0}, "tle": {"line1": "1 55973U 23039A   25355.19795169  .00011120  00000+0  27034-3 0  9996", "line2": "2 55973  97.5106 158.0869 0003993  36.8869 323.2651 15.41150455153361"}}, "geometry": {"type": "Point", "coordinates": [150.6806443284548, 45.125756202870804]}}, {"type": "Feature", "properties": {"norad_id": 55974, "name": "TIANMU-1 04", "group": "weather", "lat": 9.53548796697398, "lon": -21.248125271759083, "alt_km": 445.9036972496742, "timestamp": "2025-12-21T09:37:22.291489+00:00", "meta": {"OBJECT_NAME": "TIANMU-1 04", "OBJECT_ID": "2023-039B", "EPOCH": "2025-12-21T04:12:46.827072", "MEAN_MOTION": 15.4149109, "ECCENTRICITY": 0.0004613, "INCLINATION": 97.5038, "RA_OF_ASC_NODE": 157.2515, "ARG_OF_PERICENTER": 30.7651, "MEAN_ANOMALY": 329.3865, "EPHEMERIS_TYPE": 0, "CLASSIFICATION_TYPE": "U", "NORAD_CAT_ID": 55974, "ELEMENT_SET_NO": 999, "REV_AT_EPOCH": 15336, "BSTAR": 0.00025943, "MEAN_MOTION_DOT": 0.0001079, "MEAN_MOTION_DDOT": 0}, "tle": {"line1": "1 55974U 23039B   25355.17554198  .00010790  00000+0  25943-3 0  9999", "line2": "2 55974  97.5038 157.2515 0004613  30.7651 329.3865 15.41491090153364"}}, "geometry": {"type": "Point", "coordinates": [-21.248125271759083, 9.53548796697398]}}, {"type": "Feature", "properties": {"norad_id": 55975, "name": "TIANMU-1 05", "group": "weather", "lat": -10.30565820673761, "lon": -23.398464267491065, "alt_km": 449.16634376384445, "timestamp": "2025-12-21T09:37:22.291500+00:00", "meta": {"OBJECT_NAME": "TIANMU-1 05", "OBJECT_ID": "2023-039C", "EPOCH": "2025-12-21T04:07:30.321408", "MEAN_MOTION": 15.41107363, "ECCENTRICITY": 0.0004084, "INCLINATION": 97.5085, "RA_OF_ASC_NODE": 157.7404, "ARG_OF_PERICENTER": 55.5241, "MEAN_ANOMALY": 304.6391, "EPHEMERIS_TYPE": 0, "CLASSIFICATION_TYPE": "U", "NORAD_CAT_ID": 55975, "ELEMENT_SET_NO": 999, "REV_AT_EPOCH": 15334, "BSTAR": 0.00026172, "MEAN_MOTION_DOT": 0.00010747, "MEAN_MOTION_DDOT": 0}, "tle": {"line1": "1 55975U 23039C   25355.17187872  .00010747  00000+0  26172-3 0  9998", "line2": "2 55975  97.5085 157.7404 0004084  55.5241 304.6391 15.41107363153346"}}, "geometry": {"type": "Point", "coordinates": [-23.398464267491065, -10.30565820673761]}}, {"type": "Feature", "properties": {"norad_id": 55976, "name": "TIANMU-1 06", "group": "weather", "lat": 19.874872778271016, "lon": -18.818617465262665, "alt_km": 442.811331605797, "timestamp": "2025-12-21T09:37:22.291510+00:00", "meta": {"OBJECT_NAME": "TIANMU-1 06", "OBJECT_ID": "2023-039D", "EPOCH": "2025-12-21T04:15:30.306240", "MEAN_MOTION": 15.41542574, "ECCENTRICITY": 0.0004369, "INCLINATION": 97.5095, "RA_OF_ASC_NODE": 158.2182, "ARG_OF_PERICENTER": 49.6109, "MEAN_ANOMALY": 310.5518, "EPHEMERIS_TYPE": 0, "CLASSIFICATION_TYPE": "U", "NORAD_CAT_ID": 55976, "ELEMENT_SET_NO": 999, "REV_AT_EPOCH": 15336, "BSTAR": 0.00025556, "MEAN_MOTION_DOT": 0.00010645, "MEAN_MOTION_DDOT": 0}, "tle": {"line1": "1 55976U 23039D   25355.17743410  .00010645  00000+0  25556-3 0  9997", "line2": "2 55976  97.5095 158.2182 0004369  49.6109 310.5518 15.41542574153366"}}, "geometry": {"type": "Point", "coordinates": [-18.818617465262665, 19.874872778271016]}}, {"type": "Feature", "properties": {"norad_id": 56232, "name": "FENGYUN 3G", "group": "weather", "lat": -18.430740489759497, "lon": 166.4866023855548, "alt_km": 412.6580371223963, "timestamp": "2025-12-21T09:37:22.291520+00:00", "meta": {"OBJECT_NAME": "FENGYUN 3G", "OBJECT_ID": "2023-055A", "EPOCH": "2025-12-21T00:28:08.178240", "MEAN_MOTION": 15.54101583, "ECCENTRICITY": 0.0009287, "INCLINATION": 49.9915, "RA_OF_ASC_NODE": 184.7126, "ARG_OF_PERICENTER": 185.9215, "MEAN_ANOMALY": 174.1645, "EPHEMERIS_TYPE": 0, "CLASSIFICATION_TYPE": "U", "NORAD_CAT_ID": 56232, "ELEMENT_SET_NO": 999, "REV_AT_EPOCH": 15231, "BSTAR": 0.00036063, "MEAN_MOTION_DOT": 0.00023517, "MEAN_MOTION_DDOT": 0}, "tle": {"line1": "1 56232U 23055A   25355.01953910  .00023517  00000+0  36063-3 0  9999", "line2": "2 56232  49.9915 184.7126 0009287 185.9215 174.1645 15.54101583152316"}}, "geometry": {"type": "Point", "coordinates": [166.4866023855548, -18.430740489759497]}}, {"type": "Feature", "properties": {"norad_id": 57166, "name": "METEOR-M2 3", "group": "weather", "lat": -16.15668624329414, "lon": 51.31223174931997, "alt_km": 814.0600993889511, "timestamp": "2025-12-21T09:37:22.291564+00:00", "meta": {"OBJECT_NAME": "METEOR-M2 3", "OBJECT_ID": "2023-091A", "EPOCH": "2025-12-21T04:38:25.581696", "MEAN_MOTION": 14.24027006, "ECCENTRICITY": 0.000344, "INCLINATION": 98.6365, "RA_OF_ASC_NODE": 48.5847, "ARG_OF_PERICENTER": 343.2663, "MEAN_ANOMALY": 16.8402, "EPHEMERIS_TYPE": 0, "CLASSIFICATION_TYPE": "U", "NORAD_CAT_ID": 57166, "ELEMENT_SET_NO": 999, "REV_AT_EPOCH": 12918, "BSTAR": 1.8155e-05, "MEAN_MOTION_DOT": -2e-08, "MEAN_MOTION_DDOT": 0}, "tle": {"line1": "1 57166U 23091A   25355.19335164 -.00000002  00000+0  18155-4 0  9998", "line2": "2 57166  98.6365  48.5847 0003440 343.2663  16.8402 14.24027006129186"}}, "geometry": {"type": "Point", "coordinates": [51.31223174931997, -16.15668624329414]}}, {"type": "Feature", "properties": {"norad_id": 57399, "name": "TIANMU-1 07", "group": "weather", "lat": 8.437633076051679, "lon": -133.85249265222177, "alt_km": 484.5364867472681, "timestamp": "2025-12-21T09:37:22.291581+00:00", "meta": {"OBJECT_NAME": "TIANMU-1 07", "OBJECT_ID": "2023-101A", "EPOCH": "2025-12-21T04:09:40.527936", "MEAN_MOTION": 15.28181078, "ECCENTRICITY": 0.0005263, "INCLINATION": 97.2864, "RA_OF_ASC_NODE": 44.8374, "ARG_OF_PERICENTER": 60.1049, "MEAN_ANOMALY": 300.0713, "EPHEMERIS_TYPE": 0, "CLASSIFICATION_TYPE": "U", "NORAD_CAT_ID": 57399, "ELEMENT_SET_NO": 999, "REV_AT_EPOCH": 13444, "BSTAR": 0.00018844, "MEAN_MOTION_DOT": 5.104e-05, "MEAN_MOTION_DDOT": 0}, "tle": {"line1": "1 57399U 23101A   25355.17338574  .00005104  00000+0  18844-3 0  9995", "line2": "2 57399  97.2864  44.8374 0005263  60.1049 300.0713 15.28181078134448"}}, "geometry": {"type": "Point", "coordinates": [-133.85249265222177, 8.437633076051679]}}, {"type": "Feature", "properties": {"norad_id": 57400, "name": "TIANMU-1 08", "group": "weather", "lat": -7.618556054910875, "lon": 45.83689464920016, "alt_km": 483.4040214302686, "timestamp": "2025-12-21T09:37:22.291592+00:00", "meta": {"OBJECT_NAME": "TIANMU-1 08", "OBJECT_ID": "2023-101B", "EPOCH": "2025-12-21T04:56:30.444288", "MEAN_MOTION": 15.28163694, "ECCENTRICITY": 0.0007186, "INCLINATION": 97.2852, "RA_OF_ASC_NODE": 44.6657, "ARG_OF_PERICENTER": 60.0992, "MEAN_ANOMALY": 300.0961, "EPHEMERIS_TYPE": 0, "CLASSIFICATION_TYPE": "U", "NORAD_CAT_ID": 57400, "ELEMENT_SET_NO": 999, "REV_AT_EPOCH": 13444, "BSTAR": 0.00018303, "MEAN_MOTION_DOT": 4.954e-05, "MEAN_MOTION_DDOT": 0}, "tle": {"line1": "1 57400U 23101B   25355.20590792  .00004954  00000+0  18303-3 0  9996", "line2": "2 57400  97.2852  44.6657 0007186  60.0992 300.0961 15.28163694134441"}}, "geometry": {"type": "Point", "coordinates": [45.83689464920016, -7.618556054910875]}}]}